[
    {
        "CCSDS_OMM_VERS": "3.0",
        "COMMENT": "GENERATED VIA SPACE-TRACK.ORG API",
        "CREATION_DATE": "2025-03-02T22:46:31",
        "ORIGINATOR": "18 SPCS",
        "OBJECT_NAME": "GALILEO 21 (2C7)",
        "OBJECT_ID": "2017-079C",
        "CENTER_NAME": "EARTH",
        "REF_FRAME": "TEME",
        "TIME_SYSTEM": "UTC",
        "MEAN_ELEMENT_THEORY": "SGP4",
        "EPOCH": "2025-03-02T07:53:40.986240",
        "MEAN_MOTION": "1.70474275",
        "ECCENTRICITY": "0.00020260",
        "INCLINATION": "55.2340",
        "RA_OF_ASC_NODE": "234.4865",
        "ARG_OF_PERICENTER": "359.8890",
        "MEAN_ANOMALY": "0.0705",
        "EPHEMERIS_TYPE": "0",
        "CLASSIFICATION_TYPE": "U",
        "NORAD_CAT_ID": "43057",
        "ELEMENT_SET_NO": "999",
        "REV_AT_EPOCH": "4494",
        "BSTAR": "0.00000000000000",
        "MEAN_MOTION_DOT": "0.00000048",
        "MEAN_MOTION_DDOT": "0.0000000000000",
        "SEMIMAJOR_AXIS": "29600.288",
        "PERIOD": "844.702",
        "APOAPSIS": "23228.150",
        "PERIAPSIS": "23216.156",
        "OBJECT_TYPE": "PAYLOAD",
        "RCS_SIZE": "LARGE",
        "COUNTRY_CODE": "ESA",
        "LAUNCH_DATE": "2017-12-12",
        "SITE": "FRGUI",
        "DECAY_DATE": null,
        "FILE": "4657339",
        "GP_ID": "282105043",
        "TLE_LINE0": "0 GALILEO 21 (2C7)",
        "TLE_LINE1": "1 43057U 17079C   25061.32894660  .00000048  00000-0  00000+0 0  9996",
        "TLE_LINE2": "2 43057  55.2340 234.4865 0002026 359.8890   0.0705  1.70474275 44944"
    }
]